FENGYUN 3A              
1 32958U 08026A   26167.76539573  .00000050  00000+0  44318-4 0  9998
2 32958  98.6883 108.6064 0009574 124.7763 235.4315 14.19571060935342
EWS-G2 (GOES 15)        
1 36411U 10008A   26167.94125012  .00000014  00000+0  00000+0 0  9993
2 36411   1.2775  82.8648 0005411  42.2478 182.6632  1.00275936 59637
FENGYUN 3B              
1 37214U 10059A   26168.23713063 -.00000233  00000+0 -96994-4 0  9990
2 37214  98.9617 214.2519 0021908 183.7669 258.0860 14.14840646807432
EXACTVIEW-1 (ADS-1B)    
1 38709U 12039C   26167.88972926  .00000093  00000+0  59661-4 0  9997
2 38709  98.9778 285.2732 0011154 167.1754 192.9710 14.24984491722667
FENGYUN 3C              
1 39260U 13052A   26168.18516176  .00000061  00000+0  52095-4 0  9990
2 39260  98.4987 142.0600 0015260  27.6290 332.5693 14.15754974658568
DUBAISAT-2              
1 39419U 13066D   26168.20331488  .00002672  00000+0  16722-3 0  9991
2 39419  97.4556 158.3474 0012351  40.5288 319.6859 15.10180046686394
FENGYUN 2G              
1 40367U 14090A   26167.77588127 -.00000308  00000+0  00000+0 0  9991
2 40367   5.6375  72.8180 0004095 156.3445  54.8771  1.00272344 41998
ELEKTRO-L 2             
1 41105U 15074A   26167.63786162 -.00000124  00000+0  00000+0 0  9995
2 41105   6.6931  70.5258 0000972 242.2635 167.2330  1.00270425 38506
FENGYUN 2H              
1 43491U 18050A   26167.77186332 -.00000134  00000+0  00000+0 0  9991
2 43491   3.0297  79.0759 0001983 138.6061  44.6323  1.00269582 29430
EOS-4                   
1 51656U 22013A   26168.16521141  .00001856  00000+0  10965-3 0  9998
2 51656  97.5098 174.8149 0001815  89.3466 270.7972 15.12723983239489
